{
  "type": "FeatureCollection",
  "features": [
    {
      "type": "Feature",
      "id": "PB-SAN",
      "properties": {
        "district_id": "PB-SAN",
        "name": "Sangrur",
        "state": "Punjab",
        "center": [
          75.84,
          30.24
        ],
        "bounds": [
          75.6,
          29.8,
          76.15,
          30.4
        ],
        "total_blocks": 8
      },
      "geometry": {
        "type": "Polygon",
        "coordinates": [
          [
            [
              76.21000000000001,
              29.740000000000002
            ],
            [
              75.53999999999999,
              29.740000000000002
            ],
            [
              75.53999999999999,
              30.459999999999997
            ],
            [
              76.21000000000001,
              30.459999999999997
            ],
            [
              76.21000000000001,
              29.740000000000002
            ]
          ]
        ]
      }
    },
    {
      "type": "Feature",
      "id": "PB-LUD",
      "properties": {
        "district_id": "PB-LUD",
        "name": "Ludhiana",
        "state": "Punjab",
        "center": [
          75.85,
          30.9
        ],
        "bounds": [
          75.4,
          30.6,
          76.25,
          31.05
        ],
        "total_blocks": 8
      },
      "geometry": {
        "type": "Polygon",
        "coordinates": [
          [
            [
              76.31,
              30.540000000000003
            ],
            [
              75.34258606557377,
              30.540000000000003
            ],
            [
              75.62895879120879,
              30.798796092796092
            ],
            [
              75.34,
              30.540000000000003
            ],
            [
              75.34,
              31.11
            ],
            [
              76.31,
              31.11
            ],
            [
              76.31,
              30.540000000000003
            ]
          ]
        ]
      }
    },
    {
      "type": "Feature",
      "id": "PB-BAT",
      "properties": {
        "district_id": "PB-BAT",
        "name": "Bathinda",
        "state": "Punjab",
        "center": [
          75.0,
          30.2
        ],
        "bounds": [
          74.7,
          29.85,
          75.35,
          30.45
        ],
        "total_blocks": 6
      },
      "geometry": {
        "type": "Polygon",
        "coordinates": [
          [
            [
              75.41,
              29.790000000000003
            ],
            [
              74.64,
              29.790000000000003
            ],
            [
              74.64,
              30.509999999999998
            ],
            [
              75.41,
              30.509999999999998
            ],
            [
              75.41,
              29.790000000000003
            ]
          ]
        ]
      }
    },
    {
      "type": "Feature",
      "id": "PB-TTN",
      "properties": {
        "district_id": "PB-TTN",
        "name": "Tarn Taran",
        "state": "Punjab",
        "center": [
          74.92,
          31.45
        ],
        "bounds": [
          74.6,
          31.1,
          75.2,
          31.55
        ],
        "total_blocks": 5
      },
      "geometry": {
        "type": "Polygon",
        "coordinates": [
          [
            [
              75.26,
              31.040000000000003
            ],
            [
              74.53999999999999,
              31.040000000000003
            ],
            [
              74.53999999999999,
              31.61
            ],
            [
              75.26,
              31.61
            ],
            [
              75.26,
              31.040000000000003
            ]
          ]
        ]
      }
    }
  ]
}